HAWK-A                  
1 43765U 18099H   26195.12291875  .00004032  00000+0  16205-3 0  9995
2 43765  97.3900 247.0105 0034581 187.7545 172.3163 15.24956378417209
HAWK-B                  
1 43794U 18099AN  26195.11109128  .00003561  00000+0  15202-3 0  9997
2 43794  97.3950 246.3570 0031246 205.9479 154.0193 15.23107688417131
HAWK-C                  
1 43799U 18099AT  26195.16893369  .00005068  00000+0  18131-3 0  9992
2 43799  97.3877 248.1022 0040189 187.3959 172.6693 15.28480719418033
HAWK-2C                 
1 47502U 21006CT  26195.07838543  .00004070  00000+0  12214-3 0  9991
2 47502  97.2267 238.8548 0008632 103.9548 256.2656 15.34980823303629
HAWK-2A                 
1 47505U 21006CW  26195.14580985  .00003857  00000+0  11584-3 0  9997
2 47505  97.2309 239.6145 0008169 107.1081 253.1058 15.34995713303631
HAWK-2B                 
1 47508U 21006CZ  26195.07423787  .00004533  00000+0  13513-3 0  9994
2 47508  97.2177 237.8339 0008704 105.8558 254.3646 15.35126075303624
HAWK-3B                 
1 48931U 21059BE  26195.08162455  .00030845  00000+0  23901-3 0  9993
2 48931  97.6628  34.3783 0004360 202.0717 158.0358 15.71794570282070
HAWK-3C                 
1 48948U 21059BX  26195.14497199  .00029060  00000+0  22520-3 0  9997
2 48948  97.6749  40.1797 0004667 202.8329 157.2727 15.71802562282082
HAWK-3A                 
1 48957U 21059CG  26195.08119664  .00029118  00000+0  22570-3 0  9997
2 48957  97.6692  37.2932 0004511 205.2033 154.9010 15.71797253282072
HAWK-5C                 
1 52754U 22057Y   26195.19055884  .00011491  00000+0  19063-3 0  9999
2 52754  97.6608 356.6217 0002877 351.0827   9.0373 15.52302528230539
HAWK-5B                 
1 52756U 22057AA  26195.19037303  .00011201  00000+0  18587-3 0  9996
2 52756  97.6623 354.9748 0003550 336.6567  23.4523 15.52299787230536
HAWK-5A                 
1 52757U 22057AB  26195.19017711  .00011265  00000+0  18692-3 0  9995
2 52757  97.6617 355.8051 0003423 342.5028  17.6106 15.52300657230535
HAWK-6B                 
1 55324U 23011A   26194.41160527  .00002471  00000+0  11057-3 0  9994
2 55324  40.4967 199.0865 0003943 231.0284 129.0174 15.23143561191846
HAWK-6C                 
1 55326U 23011C   26194.41097653  .00002607  00000+0  11621-3 0  9993
2 55326  40.4959 195.9257 0004444 223.1928 136.8534 15.23146024191857
HAWK-6A                 
1 55327U 23011D   26194.41101302  .00002610  00000+0  11634-3 0  9999
2 55327  40.4967 197.5527 0003966 220.6915 139.3598 15.23145096191857
HAWK-7A                 
1 56191U 23054P   26195.16550834  .00003240  00000+0  12263-3 0  9996
2 56191  97.2666  81.8169 0001509 339.6555  20.4624 15.27626189181144
